FAA INFORMATION EFFECTIVE 08 AUGUST 2024

Location

FAA Identifier: TOB Lat/Long: 44-01-04.7843N 092-49-53.8322W

44-01.079738N 092-49.897203W

44.0179956,-92.8316201

(estimated) Elevation: 1303.7 ft. / 397.4 m (surveyed) Variation: 02E (2000) From city: 1 mile SE of DODGE CENTER, MN Time zone: UTC -5 (UTC -6 during Standard Time) Zip code: 55927

Airport Operations

Airport use: Open to the public Activation date: 08/1950 Control tower: no ARTCC: MINNEAPOLIS CENTER FSS: PRINCETON FLIGHT SERVICE STATION NOTAMs facility: TOB (NOTAM-D service available) Attendance: MON-FRI 0700-1800 Wind indicator: lighted Segmented circle: no Lights: ACTVT OR INCR INTST REIL RWY 16 & 34; PAPI RWY 16 & 34; MIRL RWY 16/34 - CTAF. MIRL RWY 16/34 PRESET LOW INTST. Beacon: white-green (lighted land airport)

Operates sunset to sunrise.

Airport Communications

CTAF: 122.9 WX AWOS-3: 119.075 (507-374-6369) ROCHESTER APPROACH: 119.8 ROCHESTER DEPARTURE: 119.8 WX ASOS at RST (16 nm SE): PHONE 507-424-8146 WX AWOS-3 at OWA (19 nm W): 128.325 (507-455-0642)

APCH/DEP SVC PRVDD BY MINNEAPOLIS ARTCC ON FREQS 132.35/307.3 (ROCHESTER RCAG) WHEN ROCHESTER APCH CTL CLSD.

Nearby radio navigation aids

VOR radial/distanceVOR nameFreqVar RSTr319/17.4ROCHESTER VOR/DME112.0005E FOWr114/25.8HALFWAY VOR/DME111.2002E AELr048/30.8ALBERT LEA VOR/DME109.8001E FGTr152/39.7FARMINGTON VORTAC115.7006E

Airport Services

Fuel available: 100LL JET-A

100LL:FUEL AVBL H24 SELF SVC VIA CREDIT CARD. Parking: hangars and tiedowns Airframe service: MAJOR Powerplant service: MAJOR

Runway Information

Runway 16/34

Dimensions: 4500 x 75 ft. / 1372 x 23 m Surface: concrete, in good condition Runway edge lights: medium intensity RUNWAY 16RUNWAY 34 Latitude: 44-01.390690N44-00.673230N Longitude: 092-49.957725W092-49.702982W Elevation: 1298.8 ft.1303.7 ft. Traffic pattern: leftleft Runway heading: 164 magnetic, 166 true344 magnetic, 346 true Markings: nonprecision, in good conditionnonprecision, in good condition Visual slope indicator: 4-light PAPI on left (3.00 degrees glide path)4-light PAPI on left (3.00 degrees glide path) Runway end identifier lights: yesyes Touchdown point: yes, no lightsyes, no lights

Runway 4/22

Dimensions: 2383 x 200 ft. / 726 x 61 m Surface: turf, in good condition Runway edge markings: YELLOW CONES. Operational restrictions: NOT PLOWED WINTER MONTHS. RUNWAY 4RUNWAY 22 Latitude: 44-01.029135N44-01.310788N Longitude: 092-50.212508W092-49.834375W Elevation: 1289.9 ft.1294.6 ft. Traffic pattern: leftleft Runway heading: 042 magnetic, 044 true222 magnetic, 224 true Runway end identifier lights: nono Touchdown point: yes, no lightsyes, no lights Obstructions: 2 ft. crops, 15 ft. from runway, 107 ft. left of centerline, 7:1 slope to clearnone

Airport Ownership and Management from official FAA records

Ownership: Publicly-owned Owner: CITY OF DODGE CENTER

23 W MAIN ST, PO BOX 430

DODGE CENTER, MN 55927-0430

Phone 507-374-2575 Manager: WAYNE TROM

806 AIRPORT DR S

DODGE CENTER, MN 55927-9173

Phone 507-374-6245

Airport Operational Statistics

Additional Remarks

- WINDMILLS 1.5 NM SW OF ARPT. - ULTRALIGHT TFC ON & INVOF ARPT. - FOR CD CTC ROCHESTER APCH AT 507-424-8111. - ARR/DEP BLDG ACES CODE: 1304.

Instrument Procedures

NOTE: All procedures below are presented as PDF files. If you need a reader for these files, you should download the free Adobe Reader.

NOT FOR NAVIGATION. Please procure official charts for flight.

FAA instrument procedures published for use from 08 August 2024 at 0901Z to 05 September 2024 at 0900z.

IAPs - Instrument Approach Procedures RNAV (GPS) RWY 16 download (262KB) RNAV (GPS) RWY 34 download (254KB) VOR-A download (196KB) NOTE: Special Alternate Minimums apply download (26KB) NOTE: Special Take-Off Minimums/Departure Procedures apply download (156KB)

Other nearby airports with instrument procedures:

KRST - Rochester International Airport (16 nm SE)

KOWA - Owatonna Degner Regional Airport (19 nm W)

KAUM - Austin Municipal Airport (22 nm S)

KFBL - Faribault Municipal Airport-Liz Wall Strohfus Field (28 nm NW)

KAEL - Albert Lea Municipal Airport (31 nm SW)

Loc | Ops | Rwys | IFR | FBO | Links

Com | Nav | Svcs | Stats | Notes

Road maps at: MapQuest Bing Google

Aerial photo WARNING: Photo may not be current or correct

Photo by Curtis R. Kooiman Photo taken 19-May-2006 Do you have a better or more recent aerial photo of Dodge Center Airport that you would like to share? If so, please send us your photo.

Sectional chart

Airport distance calculator Flying to Dodge Center Airport? Find the distance to fly.

From to KTOB

Current date and time

Zulu (UTC) 09-Aug-2024 10:57:40 Local (UTC-5) 09-Aug-2024 05:57:40

METAR

KTOB 091055Z AUTO 30009G15KT 10SM OVC038 13/11 A3007 RMK AO2 K9MN

15nm E 091055Z AUTO 30007KT 270V340 10SM SCT032 OVC038 14/12 A3006 RMK AO1 T01360120 KRST

16nm SE 091054Z 31010KT 10SM OVC040 13/11 A3005 RMK AO2 SLP177 T01330111 KOWA

19nm W 091053Z AUTO 28007KT 10SM SCT040 12/11 A3008 RMK AO2

TAF

KRST

16nm SE 090520Z 0906/1006 29009KT P6SM SCT050 FM090800 30010KT P6SM BKN040 FM091400 31015G23KT P6SM BKN030 FM100100 28008KT P6SM SCT050

NOTAMs

Click for the latest NOTAMs

NOTAMs are issued by the DoD/FAA and will open in a separate window not controlled by AirNav.

Wayne Trom 507-374-6245

no information available

If you are affiliated with Wayne Trom and would like to show here your services, contact info, web link, logo, and more, click here

100LL Jet AAS --- $4.45 SS $5.65 --- Updated 15-Jul-2024

1 read write