{
    "id": "dbpedia_7583_1",
    "rank": 61,
    "data": {
        "url": "https://www.aeroinside.com/19337/edelweiss-a343-at-zurich-on-apr-6th-2024-lost-height-immediately-after-takeoff",
        "read_more_link": "",
        "language": "en",
        "title": "Edelweiss A343 at Zurich on Apr 6th 2024, lost height immediately after takeoff",
        "top_image": "https://www.aeroinside.com/img/aircrafts/aircraft-airbus-a-340-300-registration-HB-JMF-416ded922a_b.jpg",
        "meta_img": "https://www.aeroinside.com/img/aircrafts/aircraft-airbus-a-340-300-registration-HB-JMF-416ded922a_b.jpg",
        "images": [
            "https://www.aeroinside.com/img/logo-aeroinside.png",
            "https://www.aeroinside.com/img/aircrafts/aircraft-airbus-a-340-300-registration-HB-JMF-416ded922a_b.jpg",
            "https://www.aeroinside.com/img/aircrafts/aircraft-airbus-a-340-300-registration-HB-JMF-a8741cd851_b.jpg",
            "https://www.aeroinside.com/img/aircrafts/aircraft-airbus-a-340-300-registration-HB-JMF-86ac963d8c_b.jpg",
            "https://www.aeroinside.com/img/aircrafts/aircraft-airbus-a-340-300-registration-HB-JMF-2634274c2f_b.jpg",
            "https://www.aeroinside.com/img/aircrafts/aircraft-airbus-a-340-300-registration-HB-JMF-7dc1becaa6_b.jpg",
            "https://www.aeroinside.com/img/aircrafts/aircraft-airbus-a-340-300-registration-HB-JMF-64065ed418_b.jpg",
            "https://www.aeroinside.com/img/aircrafts/aircraft-airbus-a-340-300-registration-HB-JMF-d8486c96f1_b.jpg",
            "https://www.aeroinside.com/img/aircrafts/aircraft-airbus-a-340-300-registration-HB-JMF-b0cbbd1a83_b.jpg",
            "https://www.aeroinside.com/img/aircrafts/aircraft-airbus-a-340-300-registration-HB-JMF-28d3a7b20e_b.jpg",
            "https://www.aeroinside.com/img/aircrafts/aircraft-airbus-a-340-300-registration-HB-JMF-805c165e70_b.jpg",
            "https://www.aeroinside.com/img/aircrafts/aircraft-airbus-a-340-300-registration-HB-JMF-416ded922a_z.jpg",
            "https://www.aeroinside.com/img/aircrafts/aircraft-airbus-a-340-300-registration-HB-JMF-416ded922a_z.jpg",
            "https://www.aeroinside.com/img/aircrafts/aircraft-airbus-a-340-300-registration-HB-JMF-416ded922a_n.jpg",
            "https://www.aeroinside.com/img/aircrafts/aircraft-airbus-a-320-registration-HB-IJV-137f708509_n.jpg",
            "https://www.aeroinside.com/img/aircrafts/aircraft-airbus-a-320-registration-HB-JJL-3d4b49c413_n.jpg",
            "https://www.aeroinside.com/img/aircrafts/aircraft-registration-HB-IHY-2b9d903858_n.jpg",
            "https://www.aeroinside.com/img/aircrafts/aircraft-airbus-a-320-registration-HB-IJU-ba60306d47_n.jpg",
            "https://www.aeroinside.com/img/aircrafts/aircraft-registration-D-AIKO-81a4ef3178_z.jpg",
            "https://www.aeroinside.com/img/aircrafts/aircraft-registration-HB-JXF-a6cec23338_z.jpg",
            "https://www.aeroinside.com/img/partner/logo-blockaviation.png",
            "https://www.aeroinside.com/img/partner/logo-elite-250.png",
            "https://www.aeroinside.com/img/partner/logo-blue-altitude-250.jpg",
            "https://www.aeroinside.com/img/logo-aeroinside.png",
            "https://www.aeroinside.com/img/captcha/6a834cd2dc6b7a141d4126581fe3aa63.png"
        ],
        "movies": [],
        "keywords": [],
        "meta_keywords": [
            ""
        ],
        "tags": null,
        "authors": [],
        "publish_date": "2024-04-06T20:39:52+02:00",
        "summary": "",
        "meta_description": "Discover all inside details about what happened during airplane incident Edelweiss A343 at Zurich on Apr 6th 2024, lost height immediately after takeoff",
        "meta_lang": "en",
        "meta_favicon": "/img/favicon.ico",
        "meta_site_name": "",
        "canonical_link": "https://www.aeroinside.com/19337/edelweiss-a343-at-zurich-on-apr-6th-2024-lost-height-immediately-after-takeoff",
        "text": "Last Update: April 6, 2024 / 21:23:04 GMT/Zulu time\n\nBookmark this article\n\nIncident Facts\n\nDate of incident\n\nApr 6, 2024\n\nClassification\n\nIncident\n\nAirline\n\nEdelweiss Air\n\nFlight number\n\nWK-24\n\nDeparture\n\nZurich, Switzerland\n\nDestination\n\nCancun, Mexico\n\nAircraft Registration\n\nHB-JMF\n\nAircraft Type\n\nAirbus A340-300\n\nICAO Type Designator\n\nA343\n\nAirport\n\nZürich Airport, Zurich\n\nAirport ICAO Code\n\nLSZH\n\nAn Edelweiss Airbus A340-300, registration HB-JMF performing flight WK-24 from Zurich (Switzerland) to Cancun (Mexico), was departing Zurich's runway 16 at 13:04L (11:04Z) when the aircraft rotated for takeoff and became airborne, but sank back towards the runway nearly touching down again near the end of the runway before finally being able to climb out to safety. The aircraft is currently enroute to Cancun.\n\nAfter becoming airborne the crew reported they had a tailwind on rotation.\n\nAccording to preliminary information an investigation has been opened into the departure, a tailwind gust is being suspected.\n\nThe airline reported they have seen the video of this \"unschöner Start\" (eyesore takeoff), they first need to talk to the crew and assess the flight data when the aircraft returns from Cancun.\n\nMetars:\n\nLSZH 061420Z 24004KT 200V270 CAVOK 25/08 Q1017 NOSIG=\n\nLSZH 061350Z 23006KT 180V270 CAVOK 25/08 Q1018 NOSIG=\n\nLSZH 061320Z VRB01KT CAVOK 24/08 Q1018 NOSIG=\n\nLSZH 061250Z VRB03KT CAVOK 23/08 Q1019 NOSIG=\n\nLSZH 061220Z VRB04KT CAVOK 22/08 Q1019 NOSIG=\n\nLSZH 061150Z VRB03KT CAVOK 22/08 Q1019 NOSIG=\n\nLSZH 061120Z VRB04KT CAVOK 21/09 Q1020 NOSIG=\n\nLSZH 061050Z 25003KT 200V300 CAVOK 20/09 Q1020 NOSIG=\n\nLSZH 061020Z 24004KT CAVOK 19/09 Q1020 NOSIG=\n\nLSZH 060950Z 23003KT 160V280 CAVOK 19/08 Q1020 NOSIG=\n\nLSZH 060920Z 16004KT 110V210 CAVOK 18/08 Q1020 NOSIG=\n\nLSZH 060850Z 15004KT CAVOK 17/07 Q1020 NOSIG=\n\nLSZH 060820Z 16006KT CAVOK 16/07 Q1020 NOSIG=\n\nLSZH 060750Z 17006KT CAVOK 15/07 Q1020 NOSIG=\n\nAircraft Registration Data\n\nRegister Data\n\nAirframe Data\n\nEngine Data\n\nOwner Data\n\nRegistration mark\n\nHB-JMF\n\nCountry of Registration\n\nSwitzerland\n\nDate of Registration\n\nGhbhcAhbbAffq igc Subscribe to unlock\n\nCertification Basis\n\nEbl eq Subscribe to unlock\n\nAirworthyness Category\n\nFji pmnjnfnfmpbg Subscribe to unlock\n\nLegal Basis\n\nTCDS Ident. No.\n\nManufacturer\n\nAIRBUS S.A.S.\n\nAircraft Model / Type\n\nA340-313\n\nICAO Aircraft Type\n\nA343\n\nYear of Manufacture\n\nSerial Number\n\nAircraft Address / Mode S Code (HEX)\n\nMax. Operational Passenger Seating Capacity (MOPSC), indicative\n\nMinimum Crew\n\nMaximum Take off Mass (MTOM) [kg]\n\nEngine Count\n\nEngine\n\nNmbnephlbbfqq dbpg Subscribe to unlock\n\nMain Owner\n\nMain Operator\n\nNemidpdp iApgkcjfqfl efmpiAfmgdibqq blccpjkdeelfkneidAmqimnhmdpmgAnbqciAn Subscribe to unlock\n\nIncident Facts\n\nDate of incident\n\nApr 6, 2024\n\nClassification\n\nIncident\n\nAirline\n\nEdelweiss Air\n\nFlight number\n\nWK-24\n\nDeparture\n\nZurich, Switzerland\n\nDestination\n\nCancun, Mexico\n\nAircraft Registration\n\nHB-JMF\n\nAircraft Type\n\nAirbus A340-300\n\nICAO Type Designator\n\nA343\n\nAirport\n\nZürich Airport, Zurich\n\nAirport ICAO Code\n\nLSZH\n\nThis article is published under license from Avherald.com. © of text by Avherald.com.\n\nArticle source\n\nYou can read 2 more free articles without a subscription.\n\nSubscribe now and continue reading without any limits!\n\nAre you a subscriber? Login\n\nSubscribe\n\nRead unlimited articles and receive our daily update briefing. Gain better insights into what is happening in commercial aviation safety.\n\nSend tip\n\nSupport AeroInside by sending a small tip amount.\n\nRelated articles\n\nFleet type match\n\nEdelweiss A343 at Zurich on Jul 22nd 2024, pilot incapacitation\n\nAn Edelweiss Airbus A340-300, registration HB-JMF performing flight WK-5 from Tampa,FL (USA) to Zurich (Switzerland), was on approach to Zurich when…\n\nFleet type match\n\nEdelweiss A343 near Genoa on Dec 5th 2023, engine shut down in flight\n\nAn Edelweiss Airbus A340-300, registration HB-JMF performing flight WK-84 from Zurich (Switzerland) to Cape Town (South Africa) with 276 passengers…\n\nFleet type match\n\nEdelweiss A343 near Brest on Jan 11th 2018, engine problem\n\nAn Edelweiss Airbus A340-300, registration HB-JMF performing flight WK-24 from Zurich (Switzerland) to Cancun (Mexico) with 286 passengers and 12…\n\nFleet type match\n\nEdelweiss A320 enroute on Jul 9th 2024, fuel filter indication\n\nAn Edelweiss Airbus A320-200, registration HB-IJV performing flight WK-284 from Zurich (Switzerland) to Funchal (Portugal), was enroute at FL350…\n\nFleet type match\n\nEdelweiss A320 enroute on Jul 6th 2024, fuel filter indication\n\nAn Edelweiss Airbus A320-200, registration HB-JJL performing flight WK-356 from Zurich (Switzerland) to Kos (Greece), was enroute at FL350 near…\n\nFleet type match\n\nEdelweiss A320 at Zurich on Oct 27th 2023, rejected takeoff\n\nAn Edelweiss Air Airbus A320-200, registration HB-IHY performing flight 8R-298 from Zurich (Switzerland) to Faro (Portugal), was accelerating for…\n\nFleet type match\n\nEdelweiss A320 at Zurich on Apr 20th 2024, rejected takeoff due to engine failure\n\nAn Edelweiss Airbus A320-200, registration HB-IJU performing flight WK-140 from Zurich (Switzerland) to Sharm el Sheikh (Egypt), was accelerating for…\n\nNewest articles\n\nFleet type match\n\nLufthansa A333 at Lagos on Aug 13th 2024, smoke in cockpit\n\nA Lufthansa Airbus A330-300, registration D-AIKO performing flight LH-569 from Malabo (Equatorial Guinea) to Lagos (Nigeria), was on approach to…\n\nFleet type match\n\nEasyjet Switzerland at Pristina on Jun 20th 2024, on takeoff overflew car on runway\n\nAn Easyjet Switzerland Airbus A320-200, registration HB-JXF performing flight U2-1496 from Pristina (Kosovo) to Geneva (Switzerland), was cleared for…\n\nSubscribe today\n\nAre you researching aviation incidents? Get access to AeroInside Insights, unlimited read access and receive the daily newsletter.\n\nPick your plan and subscribe\n\nPartner\n\nA new way to document and demonstrate airworthiness compliance and aircraft value. Find out more.\n\nELITE Simulation Solutions is a leading global provider of Flight Simulation Training Devices, IFR training software as well as flight controls and related services. Find out more.\n\nYour regulation partner, specialists in aviation safety and compliance; providing training, auditing, and consultancy services. Find out more.\n\nAeroInside Blog\n\nPopular aircraft\n\nAirbus A320\n\nBoeing 737-800\n\nBoeing 737-800 MAX\n\nPopular airlines\n\nAmerican Airlines\n\nUnited\n\nDelta\n\nAir Canada\n\nLufthansa\n\nBritish Airways"
    }
}